{
    "links": {
        "self": "http://www.neowsapp.com/rest/v1/neo/54005703?api_key=iIulBulltgU6a56xZRHN4H3l9WmuAYTsLGpBGhQ2"
    },
    "id": "54005703",
    "neo_reference_id": "54005703",
    "name": "(2020 DA4)",
    "designation": "2020 DA4",
    "nasa_jpl_url": "http://ssd.jpl.nasa.gov/sbdb.cgi?sstr=54005703",
    "absolute_magnitude_h": 25.7,
    "estimated_diameter": {
        "kilometers": {
            "estimated_diameter_min": 0.0192555078,
            "estimated_diameter_max": 0.0430566244
        },
        "meters": {
            "estimated_diameter_min": 19.2555078188,
            "estimated_diameter_max": 43.0566244241
        },
        "miles": {
            "estimated_diameter_min": 0.0119648141,
            "estimated_diameter_max": 0.0267541378
        },
        "feet": {
            "estimated_diameter_min": 63.1742402722,
            "estimated_diameter_max": 141.2618956756
        }
    },
    "is_potentially_hazardous_asteroid": false,
    "close_approach_data": [
        {
            "close_approach_date": "2018-01-31",
            "close_approach_date_full": "2018-Jan-31 16:00",
            "epoch_date_close_approach": 1517414400000,
            "relative_velocity": {
                "kilometers_per_second": "22.7828899492",
                "kilometers_per_hour": "82018.4038172644",
                "miles_per_hour": "50963.0465274552"
            },
            "miss_distance": {
                "astronomical": "0.4567631748",
                "lunar": "177.6808749972",
                "kilometers": "68330798.044517676",
                "miles": "42458789.0646528888"
            },
            "orbiting_body": "Earth"
        },
        {
            "close_approach_date": "2020-03-03",
            "close_approach_date_full": "2020-Mar-03 19:45",
            "epoch_date_close_approach": 1583264700000,
            "relative_velocity": {
                "kilometers_per_second": "9.7870656686",
                "kilometers_per_hour": "35233.4364068061",
                "miles_per_hour": "21892.6871939957"
            },
            "miss_distance": {
                "astronomical": "0.0075355981",
                "lunar": "2.9313476609",
                "kilometers": "1127309.424936047",
                "miles": "700477.5950775686"
            },
            "orbiting_body": "Moon"
        },
        {
            "close_approach_date": "2020-03-04",
            "close_approach_date_full": "2020-Mar-04 02:05",
            "epoch_date_close_approach": 1583287500000,
            "relative_velocity": {
                "kilometers_per_second": "9.0466906367",
                "kilometers_per_hour": "32568.0862921481",
                "miles_per_hour": "20236.5422852517"
            },
            "miss_distance": {
                "astronomical": "0.0062899232",
                "lunar": "2.4467801248",
                "kilometers": "940959.113183584",
                "miles": "584684.8807340992"
            },
            "orbiting_body": "Earth"
        },
        {
            "close_approach_date": "2022-06-01",
            "close_approach_date_full": "2022-Jun-01 12:43",
            "epoch_date_close_approach": 1654087380000,
            "relative_velocity": {
                "kilometers_per_second": "8.9270930941",
                "kilometers_per_hour": "32137.5351389189",
                "miles_per_hour": "19969.014542291"
            },
            "miss_distance": {
                "astronomical": "0.0140426884",
                "lunar": "5.4626057876",
                "kilometers": "2100756.273713708",
                "miles": "1305349.4186288504"
            },
            "orbiting_body": "Earth"
        },
        {
            "close_approach_date": "2024-06-28",
            "close_approach_date_full": "2024-Jun-28 23:37",
            "epoch_date_close_approach": 1719617820000,
            "relative_velocity": {
                "kilometers_per_second": "19.0749321923",
                "kilometers_per_hour": "68669.7558921367",
                "miles_per_hour": "42668.7158208668"
            },
            "miss_distance": {
                "astronomical": "0.3403649933",
                "lunar": "132.4019823937",
                "kilometers": "50917878.020244271",
                "miles": "31638902.2863860998"
            },
            "orbiting_body": "Earth"
        }
    ],
    "orbital_data": {
        "orbit_id": "3",
        "orbit_determination_date": "2020-03-04 05:53:00",
        "first_observation_date": "2020-02-27",
        "last_observation_date": "2020-03-04",
        "data_arc_in_days": 6,
        "observations_used": 132,
        "orbit_uncertainty": "7",
        "minimum_orbit_intersection": ".00532275",
        "jupiter_tisserand_invariant": "4.225",
        "epoch_osculation": "2459000.5",
        "eccentricity": ".4309924571038903",
        "semi_major_axis": "1.616507744776854",
        "inclination": ".868710241509711",
        "ascending_node_longitude": "184.914945110035",
        "orbital_period": "750.6977451526719",
        "perihelion_distance": ".9198050999280094",
        "perihelion_argument": "19.85636459107909",
        "aphelion_distance": "2.313210389625699",
        "perihelion_time": "2458944.830604963888",
        "mean_anomaly": "26.69647317100225",
        "mean_motion": ".4795538581600316",
        "equinox": "J2000",
        "orbit_class": {
            "orbit_class_type": "APO",
            "orbit_class_description": "Near-Earth asteroid orbits which cross the Earth’s orbit similar to that of 1862 Apollo",
            "orbit_class_range": "a (semi-major axis) > 1.0 AU; q (perihelion) < 1.017 AU"
        }
    },
    "is_sentry_object": false
}